[{"OBJECT_NAME":"JILIN-1 GAOFEN 2B","OBJECT_ID":"2019-086A","EPOCH":"2026-03-09T22:43:01.900128","MEAN_MOTION":15.19449314,"ECCENTRICITY":0.001314,"INCLINATION":97.496,"RA_OF_ASC_NODE":141.6146,"ARG_OF_PERICENTER":308.9475,"MEAN_ANOMALY":51.0588,"EPHEMERIS_TYPE":0,"CLASSIFICATION_TYPE":"U","NORAD_CAT_ID":44836,"ELEMENT_SET_NO":999,"REV_AT_EPOCH":34541,"BSTAR":0.00041762488,"MEAN_MOTION_DOT":8.807e-5,"MEAN_MOTION_DDOT":0},{"OBJECT_NAME":"OTTER PUP 2","OBJECT_ID":"2025-135K","EPOCH":"2026-03-09T21:21:10.428192","MEAN_MOTION":15.22839777,"ECCENTRICITY":0.00032963,"INCLINATION":97.4591,"RA_OF_ASC_NODE":184.9166,"ARG_OF_PERICENTER":133.797,"MEAN_ANOMALY":226.3539,"EPHEMERIS_TYPE":0,"CLASSIFICATION_TYPE":"U","NORAD_CAT_ID":64537,"ELEMENT_SET_NO":999,"REV_AT_EPOCH":3976,"BSTAR":0.0012925798,"MEAN_MOTION_DOT":0.00030282,"MEAN_MOTION_DDOT":0}]
